NORAD_CAT_ID,OBJECT_NAME,OBJECT_TYPE,EPOCH,MEAN_MOTION,ECCENTRICITY,INCLINATION,RA_OF_ASC_NODE,ARG_OF_PERICENTER,MEAN_ANOMALY,BSTAR,MEAN_MOTION_DOT,MEAN_MOTION_DDOT,TLE_LINE0,TLE_LINE1,TLE_LINE2,SEMIMAJOR_AXIS,PERIOD,APOGEE,PERIGEE,DECAYED
52676.0,STARLINK-4006,PAYLOAD,2023-09-16 11:15:32,15.08847743,0.0001499,53.2153,257.8137,90.5268,269.5896,0.00027751,4.132e-05,0.0,0 STARLINK-4006,1 52676U 22053W   23259.46912715  .00004132  00000-0  27751-3 0  9999,2 52676  53.2153 257.8137 0001499  90.5268 269.5896 15.08847743 74387,6917.857,95.437,540.759,538.685,0.0
52676.0,STARLINK-4006,PAYLOAD,2023-09-16 17:37:05,15.08843347,0.0001518,53.2152,256.6244,91.1888,268.9278,0.00017438,2.489e-05,0.0,0 STARLINK-4006,1 52676U 22053W   23259.73408985  .00002489  00000-0  17438-3 0  9992,2 52676  53.2152 256.6244 0001518  91.1888 268.9278 15.08843347 73998,6917.87,95.437,540.785,538.685,0.0
52676.0,STARLINK-4006,PAYLOAD,2023-09-17 11:06:19,15.08852596,0.0001561,53.2156,253.3531,92.8165,267.3006,0.00019796,2.865e-05,0.0,0 STARLINK-4006,1 52676U 22053W   23260.46272399  .00002865  00000-0  19796-3 0  9999,2 52676  53.2156 253.3531 0001561  92.8165 267.3006 15.08852596 74538,6917.842,95.437,540.787,538.627,0.0
52676.0,STARLINK-4006,PAYLOAD,2023-09-18 03:00:11,15.08840815,0.0001388,53.2157,250.3779,99.8405,260.2743,0.00019013,2.739e-05,0.0,0 STARLINK-4006,1 52676U 22053W   23261.12512940  .00002739  00000-0  19013-3 0  9994,2 52676  53.2157 250.3779 0001388  99.8405 260.2743 15.08840815 74206,6917.878,95.438,540.703,538.783,0.0
52676.0,STARLINK-4006,PAYLOAD,2023-09-18 10:57:06,15.08849743,0.0001484,53.216,248.8918,93.0999,267.0163,0.00016026,2.264e-05,0.0,0 STARLINK-4006,1 52676U 22053W   23261.45632392  .00002264  00000-0  16026-3 0  9998,2 52676  53.2160 248.8918 0001484  93.0999 267.0163 15.08849743 74680,6917.851,95.437,540.742,538.689,0.0
52676.0,STARLINK-4006,PAYLOAD,2023-09-18 15:43:15,15.08844492,0.0001432,53.2161,248.0006,93.3766,266.739,8.4455e-05,1.057e-05,0.0,0 STARLINK-4006,1 52676U 22053W   23261.65504609  .00001057  00000-0  84455-4 0  9990,2 52676  53.2161 248.0006 0001432  93.3766 266.7390 15.08844492 74717,6917.867,95.437,540.722,538.741,0.0
52676.0,STARLINK-4006,PAYLOAD,2023-09-19 09:12:30,15.08850423,0.0001472,53.2169,244.7291,90.9733,269.1428,0.00019268,2.781e-05,0.0,0 STARLINK-4006,1 52676U 22053W   23262.38368309  .00002781  00000-0  19268-3 0  9990,2 52676  53.2169 244.7291 0001472  90.9733 269.1428 15.08850423 74399,6917.849,95.437,540.732,538.695,0.0
52676.0,STARLINK-4006,PAYLOAD,2023-09-20 02:41:45,15.0883872,0.0001434,53.2163,241.4583,106.0214,254.0936,1.2163e-05,-9.4e-07,0.0,0 STARLINK-4006,1 52676U 22053W   23263.11232807 -.00000094  00000-0  12163-4 0  9999,2 52676  53.2163 241.4583 0001434 106.0214 254.0936 15.08838720 74508,6917.884,95.438,540.741,538.757,0.0
52676.0,STARLINK-4006,PAYLOAD,2023-09-20 09:03:17,15.08844323,0.0001378,53.2169,240.2686,105.1142,255.0003,0.0007272,0.00011306,0.0,0 STARLINK-4006,1 52676U 22053W   23263.37728827  .00011306  00000-0  72720-3 0  9990,2 52676  53.2169 240.2686 0001378 105.1142 255.0003 15.08844323 74975,6917.867,95.437,540.685,538.779,0.0
52676.0,STARLINK-4006,PAYLOAD,2023-09-20 15:24:50,15.08834374,0.0001634,53.2171,239.0794,94.071,266.0469,0.00025178,3.721e-05,0.0,0 STARLINK-4006,1 52676U 22053W   23263.64225251  .00003721  00000-0  25178-3 0  9990,2 52676  53.2171 239.0794 0001634  94.0710 266.0469 15.08834374 75015,6917.898,95.438,540.893,538.632,0.0
52676.0,STARLINK-4006,PAYLOAD,2023-09-21 02:32:33,15.08827687,0.0001947,53.2171,236.9986,92.9528,267.1687,0.00051957,7.988e-05,0.0,0 STARLINK-4006,1 52676U 22053W   23264.10593913  .00007988  00000-0  51957-3 0  9998,2 52676  53.2171 236.9986 0001947  92.9528 267.1687 15.08827687 74657,6917.918,95.438,541.13,538.436,0.0
52676.0,STARLINK-4006,PAYLOAD,2023-09-21 10:29:28,15.08844229,0.0001671,53.217,235.5112,97.7119,262.4063,0.00091931,0.00014375,0.0,0 STARLINK-4006,1 52676U 22053W   23264.43713711  .00014375  00000-0  91931-3 0  9998,2 52676  53.2170 235.5112 0001671  97.7119 262.4063 15.08844229 75136,6917.867,95.437,540.888,538.576,0.0
52676.0,STARLINK-4006,PAYLOAD,2023-09-21 21:37:10,15.0884819,0.0001536,53.2165,233.4299,88.6425,271.4743,0.00080126,0.0001249,0.0,0 STARLINK-4006,1 52676U 22053W   23264.90081780  .00012490  00000-0  80126-3 0  9994,2 52676  53.2165 233.4299 0001536  88.6425 271.4743 15.08848190 75206,6917.855,95.437,540.783,538.658,0.0
52676.0,STARLINK-4006,PAYLOAD,2023-09-22 05:34:06,15.08843696,0.000148,53.216,231.9425,89.1418,270.9743,0.00043851,6.698e-05,0.0,0 STARLINK-4006,1 52676U 22053W   23265.23201870  .00006698  00000-0  43851-3 0  9992,2 52676  53.2160 231.9425 0001480  89.1418 270.9743 15.08843696 74828,6917.869,95.437,540.758,538.71,0.0
52676.0,STARLINK-4006,PAYLOAD,2023-09-22 10:20:15,15.08851175,0.000161,53.2159,231.0499,84.9952,275.1224,0.00048912,7.507e-05,0.0,0 STARLINK-4006,1 52676U 22053W   23265.43073662  .00007507  00000-0  48912-3 0  9993,2 52676  53.2159 231.0499 0001610  84.9952 275.1224 15.08851175 75282,6917.846,95.437,540.825,538.597,0.0
52676.0,STARLINK-4006,PAYLOAD,2023-09-22 21:27:57,15.08844172,0.0001545,53.2154,228.9697,88.3471,271.7698,0.00022974,3.371e-05,0.0,0 STARLINK-4006,1 52676U 22053W   23265.89441754  .00003371  00000-0  22974-3 0  9999,2 52676  53.2154 228.9697 0001545  88.3471 271.7698 15.08844172 75357,6917.868,95.437,540.801,538.664,0.0
52676.0,STARLINK-4006,PAYLOAD,2023-09-23 07:00:16,15.08855632,0.0001461,53.2158,227.1847,91.7741,268.3419,0.00045212,6.918e-05,0.0,0 STARLINK-4006,1 52676U 22053W   23266.29185347  .00006918  00000-0  45212-3 0  9997,2 52676  53.2158 227.1847 0001461  91.7741 268.3419 15.08855632 74988,6917.833,95.437,540.708,538.687,0.0
52676.0,STARLINK-4006,PAYLOAD,2023-09-24 02:04:53,15.0884523,0.0001369,53.2155,223.6165,85.2599,274.855,0.00017759,2.54e-05,0.0,0 STARLINK-4006,1 52676U 22053W   23267.08673557  .00002540  00000-0  17759-3 0  9992,2 52676  53.2155 223.6165 0001369  85.2599 274.8550 15.08845230 75101,6917.864,95.437,540.676,538.782,0.0
52676.0,STARLINK-4006,PAYLOAD,2023-09-24 06:51:03,15.08850022,0.0001434,53.216,222.7225,87.1975,272.9181,0.00022727,3.332e-05,0.0,0 STARLINK-4006,1 52676U 22053W   23267.28545329  .00003332  00000-0  22727-3 0  9990,2 52676  53.2160 222.7225 0001434  87.1975 272.9181 15.08850022 75560,6917.85,95.437,540.707,538.723,0.0
52676.0,STARLINK-4006,PAYLOAD,2023-09-25 01:55:41,15.08842544,0.0001551,53.2171,219.1557,88.1207,271.9962,7.7422e-05,9.44e-06,0.0,0 STARLINK-4006,1 52676U 22053W   23268.08033614  .00000944  00000-0  77422-4 0  9997,2 52676  53.2171 219.1557 0001551  88.1207 271.9962 15.08842544 75251,6917.873,95.437,540.811,538.665,0.0
52676.0,STARLINK-4006,PAYLOAD,2023-09-25 06:41:50,15.08854248,0.0001508,53.2171,218.2625,88.3186,271.7979,0.00052032,8.006e-05,0.0,0 STARLINK-4006,1 52676U 22053W   23268.27905366  .00008006  00000-0  52032-3 0  9996,2 52676  53.2171 218.2625 0001508  88.3186 271.7979 15.08854248 75280,6917.837,95.437,540.745,538.659,0.0
52676.0,STARLINK-4006,PAYLOAD,2023-09-26 03:21:50,15.0886833,0.000134,53.2168,214.3951,102.8938,257.2204,0.00083824,0.00013088,0.0,0 STARLINK-4006,1 52676U 22053W   23269.14016334  .00013088  00000-0  83824-3 0  9990,2 52676  53.2168 214.3951 0001340 102.8938 257.2204 15.08868330 75845,6917.794,95.436,540.586,538.732,0.0
52676.0,STARLINK-4006,PAYLOAD,2023-09-27 01:37:15,15.08831024,0.0001387,53.2173,210.2334,81.6292,278.4858,-0.00020365,-3.527e-05,0.0,0 STARLINK-4006,1 52676U 22053W   23270.06753524 -.00003527  00000-0 -20365-3 0  9992,2 52676  53.2173 210.2334 0001387  81.6292 278.4858 15.08831024 75557,6917.908,95.438,540.732,538.813,0.0
52676.0,STARLINK-4006,PAYLOAD,2023-09-27 12:44:57,15.08824515,0.000134,53.2169,208.1537,83.6628,276.4517,-0.00021816,-3.757e-05,0.0,0 STARLINK-4006,1 52676U 22053W   23270.53122285 -.00003757  00000-0 -21816-3 0  9995,2 52676  53.2169 208.1537 0001340  83.6628 276.4517 15.08824515 76050,6917.928,95.439,540.72,538.866,0.0
52676.0,STARLINK-4006,PAYLOAD,2023-09-28 01:28:02,15.08834963,0.0001326,53.216,205.7771,96.0932,264.0212,-8.9141e-05,-1.706e-05,0.0,0 STARLINK-4006,1 52676U 22053W   23271.06114329 -.00001706  00000-0 -89141-4 0  9992,2 52676  53.2160 205.7771 0001326  96.0932 264.0212 15.08834963 76136,6917.896,95.438,540.678,538.843,0.0
52676.0,STARLINK-4006,PAYLOAD,2023-09-29 04:29:36,15.08843037,0.0001299,53.2158,200.7225,96.4705,263.6435,0.00048413,7.426e-05,0.0,0 STARLINK-4006,1 52676U 22053W   23272.18722751  .00007426  00000-0  48413-3 0  9999,2 52676  53.2158 200.7225 0001299  96.4705 263.6435 15.08843037 75877,6917.871,95.437,540.635,538.837,0.0
52676.0,STARLINK-4006,PAYLOAD,2023-09-30 02:44:59,15.08858487,0.0001532,53.2167,196.5579,97.8685,262.2481,0.00037315,5.659e-05,0.0,0 STARLINK-4006,1 52676U 22053W   23273.11457944  .00005659  00000-0  37315-3 0  9997,2 52676  53.2167 196.5579 0001532  97.8685 262.2481 15.08858487 76448,6917.824,95.436,540.749,538.629,0.0
52676.0,STARLINK-4006,PAYLOAD,2023-09-30 18:38:51,15.08837811,0.0001986,53.2158,193.5859,77.0102,283.1112,-0.00010931,-2.027e-05,0.0,0 STARLINK-4006,1 52676U 22053W   23273.77698840 -.00002027  00000-0 -10931-3 0  9994,2 52676  53.2158 193.5859 0001986  77.0102 283.1112 15.08837811 76118,6917.887,95.438,541.126,538.378,0.0
52676.0,STARLINK-4006,PAYLOAD,2023-10-01 12:08:06,15.08844397,0.000176,53.218,190.3107,90.0798,270.0396,6.1086e-05,6.84e-06,0.0,0 STARLINK-4006,1 52676U 22053W   23274.50562712  .00000684  00000-0  61086-4 0  9997,2 52676  53.2180 190.3107 0001760  90.0798 270.0396 15.08844397 76655,6917.867,95.437,540.949,538.514,0.0
52676.0,STARLINK-4006,PAYLOAD,2023-10-02 00:51:10,15.08863371,0.0001607,53.2171,187.931,97.1676,262.9499,3.5316e-05,2.74e-06,0.0,0 STARLINK-4006,1 52676U 22053W   23275.03553670  .00000274  00000-0  35316-4 0  9991,2 52676  53.2171 187.9310 0001607  97.1676 262.9499 15.08863371 76305,6917.809,95.436,540.786,538.562,0.0
